STARLINK-36196          
1 67107U 25299F   26174.60435017  .00012889  00000+0  47702-3 0  9994
2 67107  43.0004 290.9230 0001935 279.9629  80.1005 15.27583550 29311
STARLINK-36208          
1 67108U 25299G   26174.37606049  .00005249  00000+0  20008-3 0  9996
2 67108  43.0013 291.7819 0001737 271.9256  88.1397 15.27587732 29286
STARLINK-35764          
1 67109U 25299H   26174.71970330  .00014399  00000+0  53158-3 0  9990
2 67109  43.0034 290.0648 0002230 288.2866  71.7743 15.27589648 30428
STARLINK-35781          
1 67110U 25299J   26175.01208183  .00013744  00000+0  50773-3 0  9999
2 67110  43.0004 288.8198 0002176 281.1279  78.9328 15.27598292 29376
STARLINK-35875          
1 67111U 25299K   26175.04406429  .00014956  00000+0  55179-3 0  9997
2 67111  43.0027 288.1923 0001839 273.5424  86.5217 15.27586795 29381
STARLINK-35906          
1 67112U 25299L   26174.61848134  .00014543  00000+0  53693-3 0  9994
2 67112  42.9999 291.0228 0000985 261.5269  98.5471 15.27582724 29310
STARLINK-35789          
1 67113U 25299M   26175.00440013  .00026425  00000+0  96692-3 0  9991
2 67113  42.9995 288.7608 0001013 291.6443  68.4300 15.27560101 29371
STARLINK-36180          
1 67114U 25299N   26175.00309354  .00014367  00000+0  53053-3 0  9990
2 67114  42.9959 288.7437 0001301 287.9876  72.0834 15.27583249 29371
STARLINK-35892          
1 67115U 25299P   26175.03892637  .00014827  00000+0  54673-3 0  9995
2 67115  43.0048 288.1610 0001724 278.6768  81.3888 15.27611771 29381
STARLINK-35738          
1 67116U 25299Q   26174.37478117  .00021352  00000+0  78303-3 0  9992
2 67116  43.0009 291.7748 0001333 268.8319  91.2380 15.27586783 29280
STARLINK-35674          
1 67117U 25299R   26174.59665230  .00029427  00000+0  10736-2 0  9997
2 67117  43.0027 290.8601 0002066 288.9293  71.1335 15.27610210 29311
STARLINK-35701          
1 67118U 25299S   26175.04020122  .00009682  00000+0  36064-3 0  9998
2 67118  43.0051 288.1665 0001942 277.3591  82.7040 15.27604674 29389
STARLINK-36179          
1 67119U 25299T   26174.72355764  .00015581  00000+0  57431-3 0  9992
2 67119  43.0035 290.0902 0001978 284.5348  75.5284 15.27592352 29331
STARLINK-36217          
1 67120U 25299U   26174.68772331  .00011654  00000+0  43223-3 0  9993
2 67120  43.0014 290.6812 0001843 279.8902  80.1742 15.27588138 29327
STARLINK-36124          
1 67121U 25299V   26174.67359105  .00012482  00000+0  46224-3 0  9997
2 67121  42.9998 290.5721 0001553 277.3844  82.6831 15.27587222 29320
STARLINK-36188          
1 67122U 25299W   26174.61591371  .00013956  00000+0  51568-3 0  9999
2 67122  43.0000 291.0047 0001390 277.8755  82.1939 15.27582739 29310
STARLINK-36151          
1 67123U 25299X   26174.78121840  .00020175  00000+0  73983-3 0  9994
2 67123  43.0025 289.6639 0002525 286.9834  73.0741 15.27615961 29345
STARLINK-36195          
1 67124U 25299Y   26174.36707035  .00023733  00000+0  86893-3 0  9992
2 67124  43.0011 291.7138 0001934 277.8256  82.2376 15.27589216 29281
STARLINK-36219          
1 67125U 25299Z   26174.72869747  .00013602  00000+0  50276-3 0  9992
2 67125  43.0015 290.1249 0001767 283.0291  77.0364 15.27588667 29338
STARLINK-36223          
1 67126U 25299AA  26174.59021025  .00013947  00000+0  51517-3 0  9998
2 67126  43.0022 290.8037 0002256 278.8613  81.1983 15.27592563 29314
STARLINK-36164          
1 67127U 25299AB  26175.03378360  .00018035  00000+0  66286-3 0  9998
2 67127  43.0044 288.1176 0001793 279.8475  80.2174 15.27601382 29384
STARLINK-35685          
1 67128U 25299AC  26174.38248704  .00014439  00000+0  53300-3 0  9991
2 67128  43.0014 291.8311 0001346 256.3337 103.7365 15.27592972 29281
STARLINK-36214          
1 67129U 25299AD  26174.62490858  .00012984  00000+0  48044-3 0  9990
2 67129  42.9983 291.0674 0001042 274.7722  85.3010 15.27584275 29317
STARLINK-36194          
1 67130U 25299AE  26174.72483789  .00011093  00000+0  41186-3 0  9998
2 67130  43.0014 290.0968 0001776 266.8764  93.1884 15.27592136 29336
STARLINK-35755          
1 67163U 25303A   26174.40843080  .00017075  00000+0  62835-3 0  9999
2 67163  42.9998  73.6589 0001022 295.7980  64.2766 15.27590880 28904
STARLINK-36201          
1 67164U 25303B   26174.44685157  .00013131  00000+0  48611-3 0  9998
2 67164  43.0055  73.0858 0001637 266.1248  93.9417 15.27562425 28912
STARLINK-36186          
1 67165U 25303C   26174.97377795  .00021350  00000+0  78261-3 0  9999
2 67165  43.0023  70.1610 0000962 312.9946  47.0824 15.27601628 28996
STARLINK-36174          
1 67166U 25303D   26174.98662813  .00014582  00000+0  53814-3 0  9995
2 67166  43.0014  70.2584 0001256 271.6376  88.4332 15.27593882 28998
STARLINK-36198          
1 67167U 25303E   26174.76490630  .00023072  00000+0  84435-3 0  9995
2 67167  43.0024  72.0353 0001266 276.4877  83.5831 15.27617573 28954
STARLINK-35903          
1 67168U 25303F   26174.98405830  .00016409  00000+0  60423-3 0  9995
2 67168  43.0015  70.2381 0001539 270.3789  89.6886 15.27594595 28993
