OBJECT_NAME,OBJECT_ID,EPOCH,MEAN_MOTION,ECCENTRICITY,INCLINATION,RA_OF_ASC_NODE,ARG_OF_PERICENTER,MEAN_ANOMALY,EPHEMERIS_TYPE,CLASSIFICATION_TYPE,NORAD_CAT_ID,ELEMENT_SET_NO,REV_AT_EPOCH,BSTAR,MEAN_MOTION_DOT,MEAN_MOTION_DDOT
STARLINK-36196,2025-299F,2026-06-23T14:30:15.854688,15.27583550,.00019354,43.0004,290.9230,279.9629,80.1005,0,U,67107,999,2931,.47702218E-3,.12889E-3,0
STARLINK-36208,2025-299G,2026-06-23T09:01:31.626336,15.27587732,.00017377,43.0013,291.7819,271.9256,88.1397,0,U,67108,999,2928,.20008026E-3,.5249E-4,0
STARLINK-35764,2025-299H,2026-06-23T17:16:22.365120,15.27589648,.00022302,43.0034,290.0648,288.2866,71.7743,0,U,67109,999,3042,.53158217E-3,.14399E-3,0
STARLINK-35781,2025-299J,2026-06-24T00:17:23.870112,15.27598292,.00021767,43.0004,288.8198,281.1279,78.9328,0,U,67110,999,2937,.50773472E-3,.13744E-3,0
STARLINK-35875,2025-299K,2026-06-24T01:03:27.154656,15.27586795,.0001839,43.0027,288.1923,273.5424,86.5217,0,U,67111,999,2938,.55178541E-3,.14956E-3,0
STARLINK-35906,2025-299L,2026-06-23T14:50:36.787776,15.27582724,.00009854,42.9999,291.0228,261.5269,98.5471,0,U,67112,999,2931,.5369298E-3,.14543E-3,0
STARLINK-35789,2025-299M,2026-06-24T00:06:20.171232,15.27560101,.00010135,42.9995,288.7608,291.6443,68.4300,0,U,67113,999,2937,.96691739E-3,.26425E-3,0
STARLINK-36180,2025-299N,2026-06-24T00:04:27.281856,15.27583249,.00013015,42.9959,288.7437,287.9876,72.0834,0,U,67114,999,2937,.53053136E-3,.14367E-3,0
STARLINK-35892,2025-299P,2026-06-24T00:56:03.238368,15.27611771,.00017246,43.0048,288.1610,278.6768,81.3888,0,U,67115,999,2938,.54672948E-3,.14827E-3,0
STARLINK-35738,2025-299Q,2026-06-23T08:59:41.093088,15.27586783,.00013333,43.0009,291.7748,268.8319,91.2380,0,U,67116,999,2928,.78302721E-3,.21352E-3,0
STARLINK-35674,2025-299R,2026-06-23T14:19:10.758720,15.27610210,.00020662,43.0027,290.8601,288.9293,71.1335,0,U,67117,999,2931,.10736145E-2,.29427E-3,0
STARLINK-35701,2025-299S,2026-06-24T00:57:53.385408,15.27604674,.00019425,43.0051,288.1665,277.3591,82.7040,0,U,67118,999,2938,.36063974E-3,.9682E-4,0
STARLINK-36179,2025-299T,2026-06-23T17:21:55.380096,15.27592352,.00019783,43.0035,290.0902,284.5348,75.5284,0,U,67119,999,2933,.57431042E-3,.15581E-3,0
STARLINK-36217,2025-299U,2026-06-23T16:30:19.293984,15.27588138,.00018437,43.0014,290.6812,279.8902,80.1742,0,U,67120,999,2932,.43223395E-3,.11654E-3,0
STARLINK-36124,2025-299V,2026-06-23T16:09:58.266720,15.27587222,.00015534,42.9998,290.5721,277.3844,82.6831,0,U,67121,999,2932,.46223956E-3,.12482E-3,0
STARLINK-36188,2025-299W,2026-06-23T14:46:54.944544,15.27582739,.000139,43.0000,291.0047,277.8755,82.1939,0,U,67122,999,2931,.51568164E-3,.13956E-3,0
STARLINK-36151,2025-299X,2026-06-23T18:44:57.269760,15.27615961,.0002525,43.0025,289.6639,286.9834,73.0741,0,U,67123,999,2934,.73983224E-3,.20175E-3,0
STARLINK-36195,2025-299Y,2026-06-23T08:48:34.878240,15.27589216,.00019349,43.0011,291.7138,277.8256,82.2376,0,U,67124,999,2928,.86892848E-3,.23733E-3,0
STARLINK-36219,2025-299Z,2026-06-23T17:29:19.461408,15.27588667,.00017673,43.0015,290.1249,283.0291,77.0364,0,U,67125,999,2933,.50276088E-3,.13602E-3,0
STARLINK-36223,2025-299AA,2026-06-23T14:09:54.165600,15.27592563,.00022563,43.0022,290.8037,278.8613,81.1983,0,U,67126,999,2931,.51517371E-3,.13947E-3,0
STARLINK-36164,2025-299AB,2026-06-24T00:48:38.903040,15.27601382,.00017938,43.0044,288.1176,279.8475,80.2174,0,U,67127,999,2938,.66286468E-3,.18035E-3,0
STARLINK-35685,2025-299AC,2026-06-23T09:10:46.880256,15.27592972,.00013463,43.0014,291.8311,256.3337,103.7365,0,U,67128,999,2928,.53300105E-3,.14439E-3,0
STARLINK-36214,2025-299AD,2026-06-23T14:59:52.101312,15.27584275,.00010423,42.9983,291.0674,274.7722,85.3010,0,U,67129,999,2931,.48044091E-3,.12984E-3,0
STARLINK-36194,2025-299AE,2026-06-23T17:23:45.993696,15.27592136,.00017761,43.0014,290.0968,266.8764,93.1884,0,U,67130,999,2933,.41185953E-3,.11093E-3,0
STARLINK-35755,2025-303A,2026-06-23T09:48:08.421120,15.27590880,.0001022,42.9998,73.6589,295.7980,64.2766,0,U,67163,999,2890,.62835121E-3,.17075E-3,0
STARLINK-36201,2025-303B,2026-06-23T10:43:27.975648,15.27562425,.00016374,43.0055,73.0858,266.1248,93.9417,0,U,67164,999,2891,.48610769E-3,.13131E-3,0
STARLINK-36186,2025-303C,2026-06-23T23:22:14.414880,15.27601628,.0000962,43.0023,70.1610,312.9946,47.0824,0,U,67165,999,2899,.78260813E-3,.2135E-3,0
STARLINK-36174,2025-303D,2026-06-23T23:40:44.670432,15.27593882,.00012568,43.0014,70.2584,271.6376,88.4332,0,U,67166,999,2899,.53814383E-3,.14582E-3,0
STARLINK-36198,2025-303E,2026-06-23T18:21:27.904320,15.27617573,.00012663,43.0024,72.0353,276.4877,83.5831,0,U,67167,999,2895,.844354E-3,.23072E-3,0
STARLINK-35903,2025-303F,2026-06-23T23:37:02.637120,15.27594595,.00015391,43.0015,70.2381,270.3789,89.6886,0,U,67168,999,2899,.60422794E-3,.16409E-3,0
